{
  "type": "FeatureCollection",
  "features": [
    {
      "type": "Feature",
      "properties": {
        "norad_id": 66808,
        "name": "STARLINK-36071",
        "group": "last-30-days",
        "lat": 17.292278562720703,
        "lon": -125.06002982543103,
        "alt_km": 356.93147428562133,
        "timestamp": "2025-12-18T17:50:13.700473+00:00",
        "meta_object_name": "STARLINK-36071",
        "meta_object_id": "2025-278T",
        "meta_epoch": "2025-12-18T06:00:02.999808",
        "meta_mean_motion": 15.72021614,
        "meta_eccentricity": 0.0001646,
        "meta_inclination": 42.9993,
        "meta_ra_of_asc_node": 218.3969,
        "meta_arg_of_pericenter": 273.9253,
        "meta_mean_anomaly": 199.4118,
        "meta_ephemeris_type": 0,
        "meta_classification_type": "U",
        "meta_norad_cat_id": 66808,
        "meta_element_set_no": 999,
        "meta_rev_at_epoch": 384,
        "meta_bstar": -0.016378247,
        "meta_mean_motion_dot": -0.01955501,
        "meta_mean_motion_ddot": 0,
        "tle_line1": "1 66808U 25278T   25352.25003472 -.01955501  00000+0 -16378-1 0  9995",
        "tle_line2": "2 66808  42.9993 218.3969 0001646 273.9253 199.4118 15.72021614  3849"
      },
      "geometry": {
        "type": "Point",
        "coordinates": [
          -125.06002982543103,
          17.292278562720703
        ]
      }
    },
    {
      "type": "Feature",
      "properties": {
        "norad_id": 66809,
        "name": "STARLINK-35979",
        "group": "last-30-days",
        "lat": 20.93164413088101,
        "lon": -120.35760002417847,
        "alt_km": 356.38392774483145,
        "timestamp": "2025-12-18T17:50:13.700485+00:00",
        "meta_object_name": "STARLINK-35979",
        "meta_object_id": "2025-278U",
        "meta_epoch": "2025-12-18T06:00:02.999808",
        "meta_mean_motion": 15.72020767,
        "meta_eccentricity": 0.00014621,
        "meta_inclination": 42.9995,
        "meta_ra_of_asc_node": 218.3819,
        "meta_arg_of_pericenter": 275.8494,
        "meta_mean_anomaly": 203.2402,
        "meta_ephemeris_type": 0,
        "meta_classification_type": "U",
        "meta_norad_cat_id": 66809,
        "meta_element_set_no": 999,
        "meta_rev_at_epoch": 384,
        "meta_bstar": -0.016373838,
        "meta_mean_motion_dot": -0.01954824,
        "meta_mean_motion_ddot": 0,
        "tle_line1": "1 66809U 25278U   25352.25003472 -.01954824  00000+0 -16374-1 0  9999",
        "tle_line2": "2 66809  42.9995 218.3819 0001462 275.8494 203.2402 15.72020767  3848"
      },
      "geometry": {
        "type": "Point",
        "coordinates": [
          -120.35760002417847,
          20.93164413088101
        ]
      }
    },
    {
      "type": "Feature",
      "properties": {
        "norad_id": 66810,
        "name": "STARLINK-36046",
        "group": "last-30-days",
        "lat": 18.518519705786776,
        "lon": -123.51472044673045,
        "alt_km": 356.72697834505834,
        "timestamp": "2025-12-18T17:50:13.700496+00:00",
        "meta_object_name": "STARLINK-36046",
        "meta_object_id": "2025-278V",
        "meta_epoch": "2025-12-18T06:00:02.999808",
        "meta_mean_motion": 15.72022362,
        "meta_eccentricity": 0.00015705,
        "meta_inclination": 42.9992,
        "meta_ra_of_asc_node": 218.3925,
        "meta_arg_of_pericenter": 275.0719,
        "meta_mean_anomaly": 200.1799,
        "meta_ephemeris_type": 0,
        "meta_classification_type": "U",
        "meta_norad_cat_id": 66810,
        "meta_element_set_no": 999,
        "meta_rev_at_epoch": 361,
        "meta_bstar": -0.016366097,
        "meta_mean_motion_dot": -0.01954212,
        "meta_mean_motion_ddot": 0,
        "tle_line1": "1 66810U 25278V   25352.25003472 -.01954212  00000+0 -16366-1 0  9993",
        "tle_line2": "2 66810  42.9992 218.3925 0001570 275.0719 200.1799 15.72022362  3610"
      },
      "geometry": {
        "type": "Point",
        "coordinates": [
          -123.51472044673045,
          18.518519705786776
        ]
      }
    },
    {
      "type": "Feature",
      "properties": {
        "norad_id": 66811,
        "name": "STARLINK-36045",
        "group": "last-30-days",
        "lat": 19.732270168263295,
        "lon": -121.94746747258196,
        "alt_km": 356.5728240066037,
        "timestamp": "2025-12-18T17:50:13.700506+00:00",
        "meta_object_name": "STARLINK-36045",
        "meta_object_id": "2025-278W",
        "meta_epoch": "2025-12-18T06:00:02.999808",
        "meta_mean_motion": 15.72027333,
        "meta_eccentricity": 0.0001605,
        "meta_inclination": 42.9989,
        "meta_ra_of_asc_node": 218.3872,
        "meta_arg_of_pericenter": 275.7551,
        "meta_mean_anomaly": 201.4109,
        "meta_ephemeris_type": 0,
        "meta_classification_type": "U",
        "meta_norad_cat_id": 66811,
        "meta_element_set_no": 999,
        "meta_rev_at_epoch": 384,
        "meta_bstar": -0.016419831,
        "meta_mean_motion_dot": -0.01960283,
        "meta_mean_motion_ddot": 0,
        "tle_line1": "1 66811U 25278W   25352.25003472 -.01960283  00000+0 -16420-1 0  9990",
        "tle_line2": "2 66811  42.9989 218.3872 0001605 275.7551 201.4109 15.72027333  3845"
      },
      "geometry": {
        "type": "Point",
        "coordinates": [
          -121.94746747258196,
          19.732270168263295
        ]
      }
    },
    {
      "type": "Feature",
      "properties": {
        "norad_id": 66812,
        "name": "STARLINK-36054",
        "group": "last-30-days",
        "lat": 22.11707767375642,
        "lon": -118.73916770010294,
        "alt_km": 356.23225428044225,
        "timestamp": "2025-12-18T17:50:13.700516+00:00",
        "meta_object_name": "STARLINK-36054",
        "meta_object_id": "2025-278X",
        "meta_epoch": "2025-12-18T06:00:02.999808",
        "meta_mean_motion": 15.72027884,
        "meta_eccentricity": 0.00015455,
        "meta_inclination": 42.999,
        "meta_ra_of_asc_node": 218.3771,
        "meta_arg_of_pericenter": 276.8564,
        "meta_mean_anomaly": 204.1447,
        "meta_ephemeris_type": 0,
        "meta_classification_type": "U",
        "meta_norad_cat_id": 66812,
        "meta_element_set_no": 999,
        "meta_rev_at_epoch": 384,
        "meta_bstar": -0.016432367,
        "meta_mean_motion_dot": -0.01961598,
        "meta_mean_motion_ddot": 0,
        "tle_line1": "1 66812U 25278X   25352.25003472 -.01961598  00000+0 -16432-1 0  9994",
        "tle_line2": "2 66812  42.9990 218.3771 0001545 276.8564 204.1447 15.72027884  3841"
      },
      "geometry": {
        "type": "Point",
        "coordinates": [
          -118.73916770010294,
          22.11707767375642
        ]
      }
    },
    {
      "type": "Feature",
      "properties": {
        "norad_id": 66813,
        "name": "STARLINK-36042",
        "group": "last-30-days",
        "lat": 25.348949248076583,
        "lon": -114.05259255887144,
        "alt_km": 346.7600512742538,
        "timestamp": "2025-12-18T17:50:13.700527+00:00",
        "meta_object_name": "STARLINK-36042",
        "meta_object_id": "2025-278Y",
        "meta_epoch": "2025-12-18T06:00:02.999808",
        "meta_mean_motion": 15.72721168,
        "meta_eccentricity": 0.00012433,
        "meta_inclination": 42.9984,
        "meta_ra_of_asc_node": 218.3714,
        "meta_arg_of_pericenter": 284.0065,
        "meta_mean_anomaly": 199.064,
        "meta_ephemeris_type": 0,
        "meta_classification_type": "U",
        "meta_norad_cat_id": 66813,
        "meta_element_set_no": 999,
        "meta_rev_at_epoch": 384,
        "meta_bstar": 0.0015824962,
        "meta_mean_motion_dot": 0.0022548,
        "meta_mean_motion_ddot": 0,
        "tle_line1": "1 66813U 25278Y   25352.25003472  .00225480  00000+0  15825-2 0  9991",
        "tle_line2": "2 66813  42.9984 218.3714 0001243 284.0065 199.0640 15.72721168  3847"
      },
      "geometry": {
        "type": "Point",
        "coordinates": [
          -114.05259255887144,
          25.348949248076583
        ]
      }
    },
    {
      "type": "Feature",
      "properties": {
        "norad_id": 66814,
        "name": "STARLINK-35984",
        "group": "last-30-days",
        "lat": 29.880691512367,
        "lon": -106.56222753076875,
        "alt_km": 355.3288024802978,
        "timestamp": "2025-12-18T17:50:13.700536+00:00",
        "meta_object_name": "STARLINK-35984",
        "meta_object_id": "2025-278Z",
        "meta_epoch": "2025-12-18T06:00:02.999808",
        "meta_mean_motion": 15.72025217,
        "meta_eccentricity": 0.0001611,
        "meta_inclination": 42.9992,
        "meta_ra_of_asc_node": 218.3424,
        "meta_arg_of_pericenter": 273.9076,
        "meta_mean_anomaly": 220.5132,
        "meta_ephemeris_type": 0,
        "meta_classification_type": "U",
        "meta_norad_cat_id": 66814,
        "meta_element_set_no": 999,
        "meta_rev_at_epoch": 393,
        "meta_bstar": -0.016403069,
        "meta_mean_motion_dot": -0.01958361,
        "meta_mean_motion_ddot": 0,
        "tle_line1": "1 66814U 25278Z   25352.25003472 -.01958361  00000+0 -16403-1 0  9998",
        "tle_line2": "2 66814  42.9992 218.3424 0001611 273.9076 220.5132 15.72025217  3931"
      },
      "geometry": {
        "type": "Point",
        "coordinates": [
          -106.56222753076875,
          29.880691512367
        ]
      }
    }
  ]
}